[
    {
        "CCSDS_OMM_VERS": "3.0",
        "COMMENT": "GENERATED VIA SPACE-TRACK.ORG API",
        "CREATION_DATE": "2025-05-04T06:46:18",
        "ORIGINATOR": "18 SPCS",
        "OBJECT_NAME": "NAVSTAR 74 (USA 262)",
        "OBJECT_ID": "2015-033A",
        "CENTER_NAME": "EARTH",
        "REF_FRAME": "TEME",
        "TIME_SYSTEM": "UTC",
        "MEAN_ELEMENT_THEORY": "SGP4",
        "EPOCH": "2025-05-03T21:27:27.816480",
        "MEAN_MOTION": "2.00550198",
        "ECCENTRICITY": "0.01048570",
        "INCLINATION": "54.3171",
        "RA_OF_ASC_NODE": "283.9294",
        "ARG_OF_PERICENTER": "24.9020",
        "MEAN_ANOMALY": "335.5758",
        "EPHEMERIS_TYPE": "0",
        "CLASSIFICATION_TYPE": "U",
        "NORAD_CAT_ID": "40730",
        "ELEMENT_SET_NO": "999",
        "REV_AT_EPOCH": "7180",
        "BSTAR": "0.00000000000000",
        "MEAN_MOTION_DOT": "-0.00000038",
        "MEAN_MOTION_DDOT": "0.0000000000000",
        "SEMIMAJOR_AXIS": "26561.531",
        "PERIOD": "718.025",
        "APOAPSIS": "20461.913",
        "PERIAPSIS": "19904.880",
        "OBJECT_TYPE": "PAYLOAD",
        "RCS_SIZE": "LARGE",
        "COUNTRY_CODE": "US",
        "LAUNCH_DATE": "2015-07-15",
        "SITE": "AFETR",
        "DECAY_DATE": null,
        "FILE": "4718447",
        "GP_ID": "286816271",
        "TLE_LINE0": "0 NAVSTAR 74 (USA 262)",
        "TLE_LINE1": "1 40730U 15033A   25123.89407195 -.00000038  00000-0  00000+0 0  9993",
        "TLE_LINE2": "2 40730  54.3171 283.9294 0104857  24.9020 335.5758  2.00550198 71808"
    }
]